{
    "links": {
        "self": "http://www.neowsapp.com/rest/v1/neo/54034189?api_key=iIulBulltgU6a56xZRHN4H3l9WmuAYTsLGpBGhQ2"
    },
    "id": "54034189",
    "neo_reference_id": "54034189",
    "name": "(2020 NP)",
    "designation": "2020 NP",
    "nasa_jpl_url": "http://ssd.jpl.nasa.gov/sbdb.cgi?sstr=54034189",
    "absolute_magnitude_h": 27.467,
    "estimated_diameter": {
        "kilometers": {
            "estimated_diameter_min": 0.0085340459,
            "estimated_diameter_max": 0.0190827069
        },
        "meters": {
            "estimated_diameter_min": 8.5340459441,
            "estimated_diameter_max": 19.0827068541
        },
        "miles": {
            "estimated_diameter_min": 0.0053028087,
            "estimated_diameter_max": 0.0118574406
        },
        "feet": {
            "estimated_diameter_min": 27.9988392952,
            "estimated_diameter_max": 62.6073079551
        }
    },
    "is_potentially_hazardous_asteroid": false,
    "close_approach_data": [
        {
            "close_approach_date": "2020-07-07",
            "close_approach_date_full": "2020-Jul-07 22:13",
            "epoch_date_close_approach": 1594159980000,
            "relative_velocity": {
                "kilometers_per_second": "10.8767831228",
                "kilometers_per_hour": "39156.4192420818",
                "miles_per_hour": "24330.2761673924"
            },
            "miss_distance": {
                "astronomical": "0.008705975",
                "lunar": "3.386624275",
                "kilometers": "1302395.31627325",
                "miles": "809270.92314085"
            },
            "orbiting_body": "Earth"
        },
        {
            "close_approach_date": "2020-07-08",
            "close_approach_date_full": "2020-Jul-08 04:44",
            "epoch_date_close_approach": 1594183440000,
            "relative_velocity": {
                "kilometers_per_second": "10.9280828807",
                "kilometers_per_hour": "39341.0983705337",
                "miles_per_hour": "24445.0285958463"
            },
            "miss_distance": {
                "astronomical": "0.0084643817",
                "lunar": "3.2926444813",
                "kilometers": "1266253.473186979",
                "miles": "786813.4232151502"
            },
            "orbiting_body": "Moon"
        }
    ],
    "orbital_data": {
        "orbit_id": "2",
        "orbit_determination_date": "2020-07-14 06:40:54",
        "first_observation_date": "2020-07-11",
        "last_observation_date": "2020-07-13",
        "data_arc_in_days": 2,
        "observations_used": 16,
        "orbit_uncertainty": "8",
        "minimum_orbit_intersection": ".00520782",
        "jupiter_tisserand_invariant": "3.491",
        "epoch_osculation": "2459042.5",
        "eccentricity": ".5570504261735876",
        "semi_major_axis": "2.140491069120918",
        "inclination": "5.452564774376237",
        "ascending_node_longitude": "287.5862714294141",
        "orbital_period": "1143.848631922322",
        "perihelion_distance": ".9481296068463525",
        "perihelion_argument": "320.9266605699314",
        "aphelion_distance": "3.332852531395483",
        "perihelion_time": "2459009.116179750551",
        "mean_anomaly": "10.50678818368145",
        "mean_motion": ".3147269577050535",
        "equinox": "J2000",
        "orbit_class": {
            "orbit_class_type": "APO",
            "orbit_class_description": "Near-Earth asteroid orbits which cross the Earth’s orbit similar to that of 1862 Apollo",
            "orbit_class_range": "a (semi-major axis) > 1.0 AU; q (perihelion) < 1.017 AU"
        }
    },
    "is_sentry_object": false
}